OBJECT_NAME,OBJECT_ID,EPOCH,MEAN_MOTION,ECCENTRICITY,INCLINATION,RA_OF_ASC_NODE,ARG_OF_PERICENTER,MEAN_ANOMALY,EPHEMERIS_TYPE,CLASSIFICATION_TYPE,NORAD_CAT_ID,ELEMENT_SET_NO,REV_AT_EPOCH,BSTAR,MEAN_MOTION_DOT,MEAN_MOTION_DDOT
FENGYUN 3D,2017-072A,2026-06-20T12:43:24.839040,14.19739946,.0002497,99.0132,146.0131,57.0049,303.1366,0,U,43010,999,44546,.24129E-5,-.41E-6,0
NOAA 20 (JPSS-1),2017-073A,2026-06-20T09:13:56.345088,14.19512290,.0000383,98.7771,110.8189,117.6624,242.4591,0,U,43013,999,44492,.42637E-4,.46E-6,0
GOES 17,2018-022A,2026-06-20T09:20:38.499936,1.00269480,.0000598,0.9463,85.6559,28.1563,205.4138,0,U,43226,999,3045,0,-.187E-5,0
SENTINEL-3B,2018-039A,2026-06-20T09:58:35.272992,14.26735540,.0000727,98.6248,238.9017,94.6800,265.4463,0,U,43437,999,42458,.48499E-4,.74E-6,0
FENGYUN 2H,2018-050A,2026-06-20T13:12:30.798144,1.00269358,.0001874,3.0411,79.0364,137.6300,329.5997,0,U,43491,999,2947,0,-.134E-5,0
METOP-C,2018-087A,2026-06-20T10:43:09.820416,14.21512882,.000188,98.6643,230.9907,125.1991,234.9363,0,U,43689,999,39529,.49212E-4,.64E-6,0
GEO-KOMPSAT-2A,2018-100A,2026-06-20T10:01:04.427040,1.00272261,.000217,0.0473,151.2642,295.2838,100.6088,0,U,43823,999,2766,0,-.348E-5,0
METEOR-M2 2,2019-038A,2026-06-20T11:25:25.940352,14.24366337,.0001975,98.9149,158.8105,42.8362,317.2969,0,U,44387,999,36176,-.13629E-4,-.77E-6,0
ARKTIKA-M 1,2021-016A,2026-06-17T11:46:36.471360,2.00622504,.72885287,63.2922,57.5948,269.9420,14.6012,0,U,47719,999,3879,0,-.21E-5,0
FENGYUN 3E,2021-062A,2026-06-20T12:19:38.710272,14.19903874,.0002856,98.7493,174.8852,80.0393,280.1106,0,U,49008,999,25705,-.29152E-4,-.106E-5,0
GOES 18,2022-021A,2026-06-19T22:29:21.715296,1.00271950,.00004251,0.0372,171.7340,325.4670,331.2805,0,U,51850,999,662,0,.91E-6,0
NOAA 21 (JPSS-2),2022-150A,2026-06-20T10:01:08.949216,14.19565986,.0001836,98.7059,110.1525,147.2077,212.9214,0,U,54234,999,18700,.4159E-4,.44E-6,0
METEOSAT-12 (MTG-I1),2022-170C,2026-06-20T05:59:05.580960,1.00273524,.000332,0.7421,23.5307,70.9892,263.3203,0,U,54743,999,1300,0,-.13E-6,0
TIANMU-1 03,2023-039A,2026-06-20T11:27:51.996096,15.47365725,.0004099,97.5240,345.5754,91.0392,269.1327,0,U,55973,999,18134,.25296E-3,.12845E-3,0
TIANMU-1 04,2023-039B,2026-06-20T12:43:58.127232,15.47966921,.000476,97.5175,344.7844,86.7819,273.3975,0,U,55974,999,18136,.2555E-3,.13251E-3,0
TIANMU-1 05,2023-039C,2026-06-20T12:33:31.254624,15.47291795,.0004078,97.5222,345.2367,107.2246,252.9450,0,U,55975,999,18133,.24896E-3,.12608E-3,0
TIANMU-1 06,2023-039D,2026-06-20T12:49:08.000832,15.47870346,.0004347,97.5228,345.8870,102.1358,258.0379,0,U,55976,999,18136,.25527E-3,.13194E-3,0
FENGYUN 3G,2023-055A,2026-06-20T12:24:55.338624,15.52758948,.000707,49.9935,328.8608,310.3820,49.6529,0,U,56232,999,18052,.3301E-3,.20425E-3,0
METEOR-M2 3,2023-091A,2026-06-20T12:59:30.382368,14.24047076,.0004534,98.6081,226.4511,146.9466,213.1997,0,U,57166,999,15499,.13073E-4,-.13E-6,0
TIANMU-1 07,2023-101A,2026-06-20T12:02:02.877216,15.29839476,.0004235,97.2588,222.0939,114.7598,245.4084,0,U,57399,999,16215,.18046E-3,.5141E-4,0
TIANMU-1 08,2023-101B,2026-06-20T11:13:59.940768,15.29843834,.0005667,97.2576,221.8314,107.2230,252.9631,0,U,57400,999,16214,.18053E-3,.5145E-4,0
TIANMU-1 09,2023-101C,2026-06-20T12:24:12.343392,15.29876280,.0004728,97.2534,221.2931,119.4191,240.7522,0,U,57401,999,16215,.17665E-3,.5037E-4,0
TIANMU-1 10,2023-101D,2026-06-20T11:37:41.994048,15.29847391,.0006332,97.2614,222.3153,117.7075,242.4809,0,U,57402,999,16214,.18406E-3,.5248E-4,0
FENGYUN 3F,2023-111A,2026-06-20T11:56:22.467264,14.19939562,.0001592,98.6835,241.4445,91.0926,269.0433,0,U,57490,999,14933,.28118E-4,.16E-6,0
ARKTIKA-M 2,2023-198A,2026-06-17T18:13:15.259296,2.00612717,.69023443,63.2243,154.2920,267.4286,18.7609,0,U,58584,999,1833,0,.145E-5,0
TIANMU-1 11,2023-205A,2026-06-20T12:38:15.946080,15.27024285,.0008551,97.3446,193.0310,5.6651,354.4683,0,U,58645,999,13803,.17241E-3,.4503E-4,0
TIANMU-1 12,2023-205B,2026-06-20T11:55:42.191904,15.26989561,.0006326,97.3437,192.7570,351.6154,8.4979,0,U,58646,999,13801,.1733E-3,.452E-4,0
TIANMU-1 13,2023-205C,2026-06-20T12:42:30.109824,15.26842765,.0005526,97.3462,193.0620,327.7667,32.3234,0,U,58647,999,13801,.17496E-3,.4543E-4,0
TIANMU-1 14,2023-205D,2026-06-20T12:21:03.494592,15.26887258,.000649,97.3398,192.2266,332.1797,27.9094,0,U,58648,999,13801,.16934E-3,.4401E-4,0
TIANMU-1 19,2023-208A,2026-06-20T11:43:10.028064,15.31615174,.0003609,97.4507,287.8050,312.7676,47.3261,0,U,58660,999,13783,.21724E-3,.6554E-4,0
TIANMU-1 20,2023-208B,2026-06-20T12:33:54.080640,15.32805933,.0005784,97.4448,288.4792,319.7556,40.3257,0,U,58661,999,13793,.20793E-3,.6511E-4,0
