FENGYUN 3D              
1 43010U 17072A   26171.53014860 -.00000041  00000+0  24129-5 0  9997
2 43010  99.0132 146.0131 0002497  57.0049 303.1366 14.19739946445465
NOAA 20 (JPSS-1)        
1 43013U 17073A   26171.38467992  .00000046  00000+0  42637-4 0  9999
2 43013  98.7771 110.8189 0000383 117.6624 242.4591 14.19512290444925
GOES 17                 
1 43226U 18022A   26171.38933449 -.00000187  00000+0  00000+0 0  9995
2 43226   0.9463  85.6559 0000598  28.1563 205.4138  1.00269480 30451
SENTINEL-3B             
1 43437U 18039A   26171.41568603  .00000074  00000+0  48499-4 0  9990
2 43437  98.6248 238.9017 0000727  94.6800 265.4463 14.26735540424583
FENGYUN 2H              
1 43491U 18050A   26171.55035646 -.00000134  00000+0  00000+0 0  9993
2 43491   3.0411  79.0364 0001874 137.6300 329.5997  1.00269358 29471
METOP-C                 
1 43689U 18087A   26171.44664144  .00000064  00000+0  49212-4 0  9995
2 43689  98.6643 230.9907 0001880 125.1991 234.9363 14.21512882395295
GEO-KOMPSAT-2A          
1 43823U 18100A   26171.41741235 -.00000348  00000+0  00000+0 0  9998
2 43823   0.0473 151.2642 0002170 295.2838 100.6088  1.00272261 27669
METEOR-M2 2             
1 44387U 19038A   26171.47599468 -.00000077  00000+0 -13629-4 0  9996
2 44387  98.9149 158.8105 0001975  42.8362 317.2969 14.24366337361762
ARKTIKA-M 1             
1 47719U 21016A   26168.49069990 -.00000210  00000+0  00000+0 0  9999
2 47719  63.2922  57.5948 7288528 269.9420  14.6012  2.00622504 38796
FENGYUN 3E              
1 49008U 21062A   26171.51364248 -.00000106  00000+0 -29152-4 0  9993
2 49008  98.7493 174.8852 0002856  80.0393 280.1106 14.19903874257055
GOES 18                 
1 51850U 22021A   26170.93705689  .00000091  00000+0  00000+0 0  9997
2 51850   0.0372 171.7340 0000425 325.4670 331.2805  1.00271950  6625
NOAA 21 (JPSS-2)        
1 54234U 22150A   26171.41746469  .00000044  00000+0  41590-4 0  9996
2 54234  98.7059 110.1525 0001836 147.2077 212.9214 14.19565986187000
METEOSAT-12 (MTG-I1)    
1 54743U 22170C   26171.24937015 -.00000013  00000+0  00000+0 0  9996
2 54743   0.7421  23.5307 0003320  70.9892 263.3203  1.00273524 13009
TIANMU-1 03             
1 55973U 23039A   26171.47768514  .00012845  00000+0  25296-3 0  9991
2 55973  97.5240 345.5754 0004099  91.0392 269.1327 15.47365725181349
TIANMU-1 04             
1 55974U 23039B   26171.53053388  .00013251  00000+0  25550-3 0  9990
2 55974  97.5175 344.7844 0004760  86.7819 273.3975 15.47966921181361
TIANMU-1 05             
1 55975U 23039C   26171.52327841  .00012608  00000+0  24896-3 0  9995
2 55975  97.5222 345.2367 0004078 107.2246 252.9450 15.47291795181334
TIANMU-1 06             
1 55976U 23039D   26171.53412038  .00013194  00000+0  25527-3 0  9993
2 55976  97.5228 345.8870 0004347 102.1358 258.0379 15.47870346181368
FENGYUN 3G              
1 56232U 23055A   26171.51730716  .00020425  00000+0  33010-3 0  9992
2 56232  49.9935 328.8608 0007070 310.3820  49.6529 15.52758948180520
METEOR-M2 3             
1 57166U 23091A   26171.54132387 -.00000013  00000+0  13073-4 0  9992
2 57166  98.6081 226.4511 0004534 146.9466 213.1997 14.24047076154997
TIANMU-1 07             
1 57399U 23101A   26171.50142219  .00005141  00000+0  18046-3 0  9993
2 57399  97.2588 222.0939 0004235 114.7598 245.4084 15.29839476162156
TIANMU-1 08             
1 57400U 23101B   26171.46805487  .00005145  00000+0  18053-3 0  9996
2 57400  97.2576 221.8314 0005667 107.2230 252.9631 15.29843834162143
TIANMU-1 09             
1 57401U 23101C   26171.51680953  .00005037  00000+0  17665-3 0  9990
2 57401  97.2534 221.2931 0004728 119.4191 240.7522 15.29876280162151
TIANMU-1 10             
1 57402U 23101D   26171.48451382  .00005248  00000+0  18406-3 0  9997
2 57402  97.2614 222.3153 0006332 117.7075 242.4809 15.29847391162141
FENGYUN 3F              
1 57490U 23111A   26171.49748226  .00000016  00000+0  28118-4 0  9992
2 57490  98.6835 241.4445 0001592  91.0926 269.0433 14.19939562149330
ARKTIKA-M 2             
1 58584U 23198A   26168.75920439  .00000145  00000+0  00000+0 0  9993
2 58584  63.2243 154.2920 6902344 267.4286  18.7609  2.00612717 18330
TIANMU-1 11             
1 58645U 23205A   26171.52657345  .00004503  00000+0  17241-3 0  9993
2 58645  97.3446 193.0310 0008551   5.6651 354.4683 15.27024285138036
TIANMU-1 12             
1 58646U 23205B   26171.49701611  .00004520  00000+0  17330-3 0  9994
2 58646  97.3437 192.7570 0006326 351.6154   8.4979 15.26989561138019
TIANMU-1 13             
1 58647U 23205C   26171.52951516  .00004543  00000+0  17496-3 0  9998
2 58647  97.3462 193.0620 0005526 327.7667  32.3234 15.26842765138016
TIANMU-1 14             
1 58648U 23205D   26171.51462378  .00004401  00000+0  16934-3 0  9990
2 58648  97.3398 192.2266 0006490 332.1797  27.9094 15.26887258138017
TIANMU-1 19             
1 58660U 23208A   26171.48831051  .00006554  00000+0  21724-3 0  9995
2 58660  97.4507 287.8050 0003609 312.7676  47.3261 15.31615174137838
TIANMU-1 20             
1 58661U 23208B   26171.52354260  .00006511  00000+0  20793-3 0  9991
2 58661  97.4448 288.4792 0005784 319.7556  40.3257 15.32805933137937
